{
  "type": "FeatureCollection",
  "features": [
    {
      "type": "Feature",
      "properties": {
        "norad_id": 30182,
        "name": "FENGYUN 1C DEB",
        "group": "fengyun-1c-debris",
        "lat": 70.64217159600055,
        "lon": -104.37403098726804,
        "alt_km": 921.5833637734404,
        "timestamp": "2025-12-23T18:59:32.242236+00:00",
        "meta_object_name": "FENGYUN 1C DEB",
        "meta_object_id": "1999-025UP",
        "meta_epoch": "2025-12-23T03:06:05.059008",
        "meta_mean_motion": 13.96460168,
        "meta_eccentricity": 0.00744913,
        "meta_inclination": 99.064,
        "meta_ra_of_asc_node": 47.9503,
        "meta_arg_of_pericenter": 354.2156,
        "meta_mean_anomaly": 25.3173,
        "meta_ephemeris_type": 0,
        "meta_classification_type": "U",
        "meta_norad_cat_id": 30182,
        "meta_element_set_no": 999,
        "meta_rev_at_epoch": 96453,
        "meta_bstar": 9.8651419e-05,
        "meta_mean_motion_dot": 9.5e-07,
        "meta_mean_motion_ddot": 0,
        "tle_line1": "1 30182U 99025UP  25357.12922522  .00000095  00000+0  98651-4 0  9992",
        "tle_line2": "2 30182  99.0640  47.9503 0074491 354.2156  25.3173 13.96460168964535"
      },
      "geometry": {
        "type": "Point",
        "coordinates": [
          -104.37403098726804,
          70.64217159600055
        ]
      }
    },
    {
      "type": "Feature",
      "properties": {
        "norad_id": 30183,
        "name": "FENGYUN 1C DEB",
        "group": "fengyun-1c-debris",
        "lat": -12.760928001728095,
        "lon": -142.18707354720448,
        "alt_km": 837.8525692965186,
        "timestamp": "2025-12-23T18:59:32.242245+00:00",
        "meta_object_name": "FENGYUN 1C DEB",
        "meta_object_id": "1999-025UQ",
        "meta_epoch": "2025-12-23T03:04:50.181312",
        "meta_mean_motion": 14.12681892,
        "meta_eccentricity": 0.00263793,
        "meta_inclination": 98.7874,
        "meta_ra_of_asc_node": 39.1702,
        "meta_arg_of_pericenter": 223.2635,
        "meta_mean_anomaly": 199.8381,
        "meta_ephemeris_type": 0,
        "meta_classification_type": "U",
        "meta_norad_cat_id": 30183,
        "meta_element_set_no": 999,
        "meta_rev_at_epoch": 97290,
        "meta_bstar": 0.00050684509,
        "meta_mean_motion_dot": 8.99e-06,
        "meta_mean_motion_ddot": 0,
        "tle_line1": "1 30183U 99025UQ  25357.12835858  .00000899  00000+0  50685-3 0  9994",
        "tle_line2": "2 30183  98.7874  39.1702 0026379 223.2635 199.8381 14.12681892972900"
      },
      "geometry": {
        "type": "Point",
        "coordinates": [
          -142.18707354720448,
          -12.760928001728095
        ]
      }
    },
    {
      "type": "Feature",
      "properties": {
        "norad_id": 30191,
        "name": "FENGYUN 1C DEB",
        "group": "fengyun-1c-debris",
        "lat": -15.825234302434984,
        "lon": -112.55365924174897,
        "alt_km": 582.1487696921849,
        "timestamp": "2025-12-23T18:59:32.242254+00:00",
        "meta_object_name": "FENGYUN 1C DEB",
        "meta_object_id": "1999-025UY",
        "meta_epoch": "2025-12-23T03:37:08.409792",
        "meta_mean_motion": 14.78194449,
        "meta_eccentricity": 0.00971662,
        "meta_inclination": 98.7749,
        "meta_ra_of_asc_node": 69.2582,
        "meta_arg_of_pericenter": 230.4665,
        "meta_mean_anomaly": 159.3271,
        "meta_ephemeris_type": 0,
        "meta_classification_type": "U",
        "meta_norad_cat_id": 30191,
        "meta_element_set_no": 999,
        "meta_rev_at_epoch": 429,
        "meta_bstar": 0.0014089568,
        "meta_mean_motion_dot": 0.00010999,
        "meta_mean_motion_ddot": 0,
        "tle_line1": "1 30191U 99025UY  25357.15079178  .00010999  00000+0  14090-2 0  9992",
        "tle_line2": "2 30191  98.7749  69.2582 0097166 230.4665 159.3271 14.78194449  4291"
      },
      "geometry": {
        "type": "Point",
        "coordinates": [
          -112.55365924174897,
          -15.825234302434984
        ]
      }
    },
    {
      "type": "Feature",
      "properties": {
        "norad_id": 30193,
        "name": "FENGYUN 1C DEB",
        "group": "fengyun-1c-debris",
        "lat": -22.029201889648583,
        "lon": 82.84338039613274,
        "alt_km": 749.0309615735287,
        "timestamp": "2025-12-23T18:59:32.242263+00:00",
        "meta_object_name": "FENGYUN 1C DEB",
        "meta_object_id": "1999-025VA",
        "meta_epoch": "2025-12-23T05:33:24.294816",
        "meta_mean_motion": 14.49171899,
        "meta_eccentricity": 0.01075442,
        "meta_inclination": 98.7568,
        "meta_ra_of_asc_node": 265.8382,
        "meta_arg_of_pericenter": 101.6801,
        "meta_mean_anomaly": 60.4265,
        "meta_ephemeris_type": 0,
        "meta_classification_type": "U",
        "meta_norad_cat_id": 30193,
        "meta_element_set_no": 999,
        "meta_rev_at_epoch": 99318,
        "meta_bstar": 0.00068881248,
        "meta_mean_motion_dot": 2.771e-05,
        "meta_mean_motion_ddot": 0,
        "tle_line1": "1 30193U 99025VA  25357.23153119  .00002771  00000+0  68881-3 0  9998",
        "tle_line2": "2 30193  98.7568 265.8382 0107544 101.6801  60.4265 14.49171899993189"
      },
      "geometry": {
        "type": "Point",
        "coordinates": [
          82.84338039613274,
          -22.029201889648583
        ]
      }
    },
    {
      "type": "Feature",
      "properties": {
        "norad_id": 30196,
        "name": "FENGYUN 1C DEB",
        "group": "fengyun-1c-debris",
        "lat": 35.95223808558968,
        "lon": -83.58149577053572,
        "alt_km": 826.1807669352911,
        "timestamp": "2025-12-23T18:59:32.242272+00:00",
        "meta_object_name": "FENGYUN 1C DEB",
        "meta_object_id": "1999-025VD",
        "meta_epoch": "2025-12-23T05:08:16.884384",
        "meta_mean_motion": 14.25850566,
        "meta_eccentricity": 0.00865396,
        "meta_inclination": 98.6396,
        "meta_ra_of_asc_node": 89.5186,
        "meta_arg_of_pericenter": 32.9242,
        "meta_mean_anomaly": 28.2008,
        "meta_ephemeris_type": 0,
        "meta_classification_type": "U",
        "meta_norad_cat_id": 30196,
        "meta_element_set_no": 999,
        "meta_rev_at_epoch": 98514,
        "meta_bstar": 5.4832606e-05,
        "meta_mean_motion_dot": 9.2e-07,
        "meta_mean_motion_ddot": 0,
        "tle_line1": "1 30196U 99025VD  25357.21408431  .00000092  00000+0  54833-4 0  9996",
        "tle_line2": "2 30196  98.6396  89.5186 0086539  32.9242  28.2008 14.25850566985141"
      },
      "geometry": {
        "type": "Point",
        "coordinates": [
          -83.58149577053572,
          35.95223808558968
        ]
      }
    },
    {
      "type": "Feature",
      "properties": {
        "norad_id": 30197,
        "name": "FENGYUN 1C DEB",
        "group": "fengyun-1c-debris",
        "lat": 75.45743405234754,
        "lon": -113.78085257406906,
        "alt_km": 769.5273033133744,
        "timestamp": "2025-12-23T18:59:32.242285+00:00",
        "meta_object_name": "FENGYUN 1C DEB",
        "meta_object_id": "1999-025VE",
        "meta_epoch": "2025-12-22T17:50:20.402880",
        "meta_mean_motion": 14.37232355,
        "meta_eccentricity": 0.00572732,
        "meta_inclination": 98.9398,
        "meta_ra_of_asc_node": 282.4888,
        "meta_arg_of_pericenter": 184.721,
        "meta_mean_anomaly": 234.8359,
        "meta_ephemeris_type": 0,
        "meta_classification_type": "U",
        "meta_norad_cat_id": 30197,
        "meta_element_set_no": 999,
        "meta_rev_at_epoch": 98630,
        "meta_bstar": 0.00058935044,
        "meta_mean_motion_dot": 1.741e-05,
        "meta_mean_motion_ddot": 0,
        "tle_line1": "1 30197U 99025VE  25356.74329170  .00001741  00000+0  58935-3 0  9994",
        "tle_line2": "2 30197  98.9398 282.4888 0057273 184.7210 234.8359 14.37232355986300"
      },
      "geometry": {
        "type": "Point",
        "coordinates": [
          -113.78085257406906,
          75.45743405234754
        ]
      }
    },
    {
      "type": "Feature",
      "properties": {
        "norad_id": 30198,
        "name": "FENGYUN 1C DEB",
        "group": "fengyun-1c-debris",
        "lat": -17.485076690195978,
        "lon": -53.81038514390227,
        "alt_km": 664.8108481157851,
        "timestamp": "2025-12-23T18:59:32.242300+00:00",
        "meta_object_name": "FENGYUN 1C DEB",
        "meta_object_id": "1999-025VF",
        "meta_epoch": "2025-12-23T03:58:58.067904",
        "meta_mean_motion": 14.5050721,
        "meta_eccentricity": 0.01069112,
        "meta_inclination": 98.4484,
        "meta_ra_of_asc_node": 128.2456,
        "meta_arg_of_pericenter": 166.6909,
        "meta_mean_anomaly": 6.4047,
        "meta_ephemeris_type": 0,
        "meta_classification_type": "U",
        "meta_norad_cat_id": 30198,
        "meta_element_set_no": 999,
        "meta_rev_at_epoch": 98658,
        "meta_bstar": 0.0020603496,
        "meta_mean_motion_dot": 8.641e-05,
        "meta_mean_motion_ddot": 0,
        "tle_line1": "1 30198U 99025VF  25357.16594986  .00008641  00000+0  20603-2 0  9997",
        "tle_line2": "2 30198  98.4484 128.2456 0106911 166.6909   6.4047 14.50507210986585"
      },
      "geometry": {
        "type": "Point",
        "coordinates": [
          -53.81038514390227,
          -17.485076690195978
        ]
      }
    }
  ]
}